#INTELSAT 602            
1 20315C 89087A   11297.00000000  .00000127  00000-0  00000-0 0 29704
2 20315   8.8688  55.3675 0002994 273.0071 241.5601  1.00268284    17
#INTELSAT 602        [PM]
1 20315C 89087A   11297.28819444  .00000127  00000-0  00000-0 0 29726
2 20315   8.8702  55.3672 0004129 180.9405  77.6688  1.00268656    16
#INTELSAT 602            
1 20315C 89087A   11300.00000000  .00000126  00000-0  00000-0 0 30003
2 20315   8.8802  55.3300 0003055 271.3753 246.1615  1.00269685    19
#LEASAT 5                
1 20410C 90002B   11297.00000000  .00000032  00000-0  00000-0 0 29704
2 20410   9.7318  29.4938 0003871   1.9766  72.6096  1.00272130    17
#LEASAT 5                
1 20410C 90002B   11300.00000000  .00000032  00000-0  00000-0 0 30004
2 20410   9.7394  29.4866 0004057   0.6072  76.9509  1.00271721    15
#INTELSAT 603            
1 20523C 90021A   11297.00000000  .00000166  00000-0  00000-0 0 29708
2 20523   8.3674  56.9117 0002931  97.5406 249.1049  1.00271194    12
#INTELSAT 603            
1 20523C 90021A   11300.00000000  .00000166  00000-0  00000-0 0 30008
2 20523   8.3788  56.8757 0003086  93.2867 256.3359  1.00272864    12
#INTELSAT 603        [PM]
1 20523C 90021A   11303.21266204  .00000166  00000-0  00000-0 0 30318
2 20523   8.3864  56.8684 0002613  10.0193  59.3522  1.00270736    19
#INTELSAT 601            
1 21765C 91075A   11297.00000000  .00000241  00000-0  00000-0 0 29701
2 21765   6.5022  61.6499 0000585  37.4634 329.5357  0.99871887    10
#INTELSAT 601            
1 21765C 91075A   11300.00000000  .00000239  00000-0  00000-0 0 30008
2 21765   6.5143  61.6134 0002266  40.6527 324.6544  0.99823441    12
#INTELSAT 601        [PM]
1 21765C 91075A   11300.63333333  .00000238  00000-0  00000-0 0 30059
2 21765   6.5163  61.6150 0001618 286.9010 305.9857  0.99803132    18
INTELSAT 701            
1 22871C 93066A   11297.00000000  .00000139  00000-0  00000-0 0 29708
2 22871   0.0048 257.8613 0002400 306.9156   7.3003  1.00271261    16
INTELSAT 701            
1 22871C 93066A   11300.00000000  .00000145  00000-0  00000-0 0 30005
2 22871   0.0189 274.4897 0002400 289.9044  10.6427  1.00273353    18
INTELSAT 701        [PM]
1 22871C 93066A   11301.60866898  .00000143  00000-0  00000-0 0 30140
2 22871   0.0136 278.8634 0002225 283.7156 233.1780  1.00270127    18
INTELSAT 702            
1 23124C 94034A   11297.00000000  .00000217  00000-0  00000-0 0 29703
2 23124   0.2916  81.0433 0002246 140.4745 218.0598  1.00272387    14
INTELSAT 702            
1 23124C 94034A   11300.00000000  .00000217  00000-0  00000-0 0 30003
2 23124   0.3025  80.6125 0002328 135.5056 226.4065  1.00270699    16
INTELSAT 702        [PM]
1 23124C 94034A   11305.18215278  .00000217  00000-0  00000-0 0 30518
2 23124   0.3169  81.3558 0002580 137.2544 294.5987  1.00270256    12
INTELSAT 706            
1 23571C 95023A   11297.00000000  .00000032  00000-0  00000-0 0 29703
2 23571   0.2269  78.3366 0002768 140.2426 245.5177  1.00271466    13
INTELSAT 706            
1 23571C 95023A   11300.00000000  .00000032  00000-0  00000-0 0 30003
2 23571   0.2376  77.9477 0002700 138.7111 250.3870  1.00270844    12
INTELSAT 706        [PM]
1 23571C 95023A   11300.50694444  .00000032  00000-0  00000-0 0 30043
2 23571   0.2396  78.0413 0002677 139.0418  72.9594  1.00270762    13
PAKSAT 1                
1 23779C 96006A   11297.00000000  .00000244  00000-0  00000-0 0 29700
2 23779   0.0744 102.8543 0002345 105.7466 221.5783  1.00270799    15
PAKSAT 1                
1 23779C 96006A   11300.00000000  .00000243  00000-0  00000-0 0 30009
2 23779   0.0815  96.8615 0002286 111.0378 225.2340  1.00272781    15
INTELSAT 707            
1 23816C 96015A   11297.00000000 -.00000195  00000-0  00000-0 0 29708
2 23816   0.0206 291.5545 0002941 292.3826 115.1531  1.00271552    10
INTELSAT 707            
1 23816C 96015A   11300.00000000 -.00000195  00000-0  00000-0 0 30008
2 23816   0.0218 326.1054 0002863 258.3296 117.6005  1.00270971    16
INTELSAT 707        [PM]
1 23816C 96015A   11301.83009259 -.00000198  00000-0  00000-0 0 30165
2 23816   0.0255 359.8956 0002800 222.3518  60.4156  1.00272657    15
INTELSAT 24         [PM]
1 23865C 96030B   11209.85091435  .00000245  00000-0  00000-0 0 20961
2 23865   2.7584  72.8703 0003258  68.1631 147.9031  1.00214055    16
INTELSAT 24             
1 23865C 96030B   11297.00000000  .00000244  00000-0  00000-0 0 29703
2 23865   2.9560  71.7556 0003760 154.6903 196.6751  1.00275908    11
INTELSAT 24             
1 23865C 96030B   11300.00000000  .00000244  00000-0  00000-0 0 30003
2 23865   2.9678  71.6898 0003255 144.8418 209.5589  1.00267175    10
INTELSAT 709            
1 23915C 96035A   11297.00000000 -.00000028  00000-0  00000-0 0 29705
2 23915   0.0054 241.1425 0002273   3.7284 219.3106  1.00270466    17
INTELSAT 709            
1 23915C 96035A   11300.00000000  .00000263  00000-0  00000-0 0 30005
2 23915   0.0303 109.7536 0002266 135.5572 221.8138  1.00271895    12
INTELSAT 709        [PM]
1 23915C 96035A   11303.89929398  .00000034  00000-0  00000-0 0 30371
2 23915   0.0142  33.3396 0001870 207.4870 193.9006  1.00271472    13
INTELSAT 26             
1 24732C 97007A   11297.00000000  .00000203  00000-0  00000-0 0 29707
2 24732   3.5665  69.0363 0003429 147.0362 226.2991  1.00272729    15
INTELSAT 26             
1 24732C 97007A   11300.00000000  .00000203  00000-0  00000-0 0 30007
2 24732   3.5783  68.9842 0003356 148.5501 227.7987  1.00274308    12
INTELSAT 801            
1 24742C 97009A   11297.00000000 -.00000123  00000-0  00000-0 0 29702
2 24742   2.7884  71.6099 0001694 153.2624 137.7296  1.00268434    19
INTELSAT 801            
1 24742C 97009A   11300.00000000 -.00000123  00000-0  00000-0 0 30002
2 24742   2.7997  71.5329 0001589 144.9186 149.0929  1.00272732    17
INTELSAT 801        [PM]
1 24742C 97009A   11305.82899306 -.00000123  00000-0  00000-0 0 30563
2 24742   2.8135  70.0102 0001771 128.6706 111.0516  1.00270908    19
GALAXY 25               
1 24812C 97026A   11297.00000000 -.00000053  00000-0  00000-0 0 29701
2 24812   0.0041 202.3042 0002414   8.0711  88.6083  1.00271631    10
GALAXY 25               
1 24812C 97026A   11300.00000000 -.00000090  00000-0  00000-0 0 30002
2 24812   0.0097 164.3410 0002361  47.0755  90.5201  1.00271765    11
GALAXY 25           [PM]
1 24812C 97026A   11300.38693287 -.00000073  00000-0  00000-0 0 30032
2 24812   0.0195 251.3577 0002344 322.2454 228.0096  1.00272255    11
INTELSAT 5              
1 24916C 97046A   11297.00000000  .00000067  00000-0  00000-0 0 29702
2 24916   0.0324  81.2524 0001990 137.2343 342.5888  1.00269693    12
INTELSAT 5              
1 24916C 97046A   11300.00000000 -.00000052  00000-0  00000-0 0 30007
2 24916   0.0022 337.9441 0001780 232.7568 353.3189  1.00273147    16
INTELSAT 805            
1 25371C 98037A   11297.00000000 -.00000210  00000-0  00000-0 0 29700
2 25371   0.0494  54.1186 0002701 151.1453 131.3268  1.00272885    10
INTELSAT 805            
1 25371C 98037A   11300.00000000 -.00000270  00000-0  00000-0 0 30006
2 25371   0.0087   4.5676 0002600 199.6642 135.3172  1.00271535    15
INTELSAT 805        [PM]
1 25371C 98037A   11303.30208333 -.00000255  00000-0  00000-0 0 30329
2 25371   0.0172  11.2141 0002633 195.6810 244.6467  1.00269145    16
INTELSAT 7              
1 25473C 98052A   11297.00000000  .00000062  00000-0  00000-0 0 29704
2 25473   0.0337  94.2360 0002795 109.7058 256.7888  1.00271390    11
INTELSAT 7              
1 25473C 98052A   11300.00000000 -.00000047  00000-0  00000-0 0 30008
2 25473   0.0051 149.6358 0002749  56.6587 257.3894  1.00272762    10
INTELSAT 7          [PM]
1 25473C 98052A   11303.07429398  .00000016  00000-0  00000-0 0 30301
2 25473   0.0005 152.1240 0002926  38.7131 302.6221  1.00270780    17
INTELSAT 8              
1 25522C 98065A   11297.00000000  .00000037  00000-0  00000-0 0 29705
2 25522   0.0149 257.0997 0002758 313.9154 347.0731  1.00271648    14
INTELSAT 8              
1 25522C 98065A   11300.00000000  .00000022  00000-0  00000-0 0 30009
2 25522   0.0055 275.4662 0002768 284.7542   0.8161  1.00271660    15
INTELSAT 8          [PM]
1 25522C 98065A   11303.65813657  .00000034  00000-0  00000-0 0 30354
2 25522   0.0246 266.6808 0002710 299.2655 235.6247  1.00271594    13
GALAXY 26               
1 25626C 99005A   11297.00000000  .00000439  00000-0  00000-0 0 29701
2 25626   0.0321  93.8007 0002277 127.7651 220.5123  1.00272166    14
GALAXY 26               
1 25626C 99005A   11300.00000000  .00000209  00000-0  00000-0 0 30006
2 25626   0.0081 266.9341 0002052 316.1635 221.9445  1.00273481    11
GALAXY 26           [PM]
1 25626C 99005A   11300.14684028  .00000117  00000-0  00000-0 0 30018
2 25626   0.0078 269.0969 0002079 307.0865 281.8664  1.00269858    11
INSAT-2E                
1 25666C 99016A   11297.00000000 -.00000029  00000-0  00000-0 0 29703
2 25666   0.3659  80.2581 0000860 116.4215 273.6682  1.00253481    17
INSAT-2E                
1 25666C 99016A   11300.00000000 -.00000027  00000-0  00000-0 0 30001
2 25666   0.3768  79.9190 0000855 108.0631 285.1236  1.00253726    17
GALAXY 27               
1 25922C 99052A   11297.00000000  .00000227  00000-0  00000-0 0 29707
2 25922   0.0092 257.1829 0001593 316.6986 223.3008  1.00273084    18
GALAXY 27               
1 25922C 99052A   11300.00000000  .00000117  00000-0  00000-0 0 30005
2 25922   0.0020 283.1856 0001806 281.1269 235.8275  1.00270352    14
GALAXY 27           [PM]
1 25922C 99052A   11300.34722222  .00000148  00000-0  00000-0 0 30025
2 25922   0.0016 289.6994 0001791 273.3652   2.4147  1.00269845    16
GALAXY 11           [PM]
1 26038C 99071A   11228.45833333 -.00000222  00000-0  00000-0 0 22836
2 26038   0.0200 254.7494 0008084 141.9474  37.5924  1.00252004    13
